[{"OBJECT_NAME":"HUYGENS","OBJECT_ID":"2023-001CN","EPOCH":"2026-03-09T22:29:59.612064","MEAN_MOTION":15.38188083,"ECCENTRICITY":0.00114239,"INCLINATION":97.3353,"RA_OF_ASC_NODE":136.098,"ARG_OF_PERICENTER":84.7178,"MEAN_ANOMALY":275.537,"EPHEMERIS_TYPE":0,"CLASSIFICATION_TYPE":"U","NORAD_CAT_ID":55093,"ELEMENT_SET_NO":999,"REV_AT_EPOCH":17710,"BSTAR":0.00030435197,"MEAN_MOTION_DOT":0.00011392,"MEAN_MOTION_DDOT":0},{"OBJECT_NAME":"TRANSPORTER-12 OBJECT AY","OBJECT_ID":"2025-009AY","EPOCH":"2026-03-09T05:15:09.595584","MEAN_MOTION":15.3641145,"ECCENTRICITY":8.363e-5,"INCLINATION":97.4067,"RA_OF_ASC_NODE":153.6184,"ARG_OF_PERICENTER":214.022,"MEAN_ANOMALY":146.097,"EPHEMERIS_TYPE":0,"CLASSIFICATION_TYPE":"U","NORAD_CAT_ID":62655,"ELEMENT_SET_NO":999,"REV_AT_EPOCH":6382,"BSTAR":0.00083878699,"MEAN_MOTION_DOT":0.00029789,"MEAN_MOTION_DDOT":0}]
